{
  "norad_id": 68697,
  "name": "JILIN GAOFEN OBJECT G",
  "history": [
    {
      "epoch": "2026-04-14T13:03:13.754016Z",
      "apogee_km": 547.7361799037299,
      "perigee_km": 527.6208389130643,
      "latitude_deg": -3.4624760579260555e-05,
      "longitude_deg": 141.66128203565083,
      "height_km": 538.2510296193517,
      "semi_major_axis_km": 6915.815509408397,
      "eccentricity": 0.0014543,
      "inclination_deg": 97.6649,
      "raan_deg": 180.1874,
      "arg_perigee_deg": 284.4084,
      "mean_anomaly_deg": 75.553,
      "mean_motion_rev_day": 15.095158
    }
  ]
}