JILIN GAOFEN OBJECT G
1 68697U 26080G   26104.54390919  .00001586  00000+0  10279-3 0  9996
2 68697  97.6649 180.1874 0014543 284.4084  75.5530 15.09515800    26
